[{"OBJECT_NAME":"SL-8 R/B","OBJECT_ID":"1988-053B","EPOCH":"2026-03-08T14:59:00.193056","MEAN_MOTION":14.38915235,"ECCENTRICITY":0.00214013,"INCLINATION":74.0462,"RA_OF_ASC_NODE":114.4304,"ARG_OF_PERICENTER":293.8475,"MEAN_ANOMALY":182.5791,"EPHEMERIS_TYPE":0,"CLASSIFICATION_TYPE":"U","NORAD_CAT_ID":19257,"ELEMENT_SET_NO":999,"REV_AT_EPOCH":97644,"BSTAR":0.00011922442,"MEAN_MOTION_DOT":3.42e-6,"MEAN_MOTION_DDOT":0},{"OBJECT_NAME":"COSMOS 1975","OBJECT_ID":"1988-093A","EPOCH":"2026-03-08T14:40:40.554336","MEAN_MOTION":15.28054283,"ECCENTRICITY":0.00120381,"INCLINATION":82.5181,"RA_OF_ASC_NODE":118.7674,"ARG_OF_PERICENTER":167.1429,"MEAN_ANOMALY":193.0119,"EPHEMERIS_TYPE":0,"CLASSIFICATION_TYPE":"U","NORAD_CAT_ID":19573,"ELEMENT_SET_NO":999,"REV_AT_EPOCH":1924,"BSTAR":0.00038331138,"MEAN_MOTION_DOT":0.00010542,"MEAN_MOTION_DDOT":0},{"OBJECT_NAME":"SL-14 R/B","OBJECT_ID":"1988-093B","EPOCH":"2026-03-08T23:43:13.221408","MEAN_MOTION":14.85655601,"ECCENTRICITY":0.00218131,"INCLINATION":82.5305,"RA_OF_ASC_NODE":42.702,"ARG_OF_PERICENTER":43.6768,"MEAN_ANOMALY":15.3963,"EPHEMERIS_TYPE":0,"CLASSIFICATION_TYPE":"U","NORAD_CAT_ID":19574,"ELEMENT_SET_NO":999,"REV_AT_EPOCH":91,"BSTAR":8.6312006e-5,"MEAN_MOTION_DOT":7.75e-6,"MEAN_MOTION_DDOT":0},{"OBJECT_NAME":"SL-16 R/B","OBJECT_ID":"1988-102B","EPOCH":"2026-03-08T15:12:14.518368","MEAN_MOTION":14.1615142,"ECCENTRICITY":0.00138888,"INCLINATION":71,"RA_OF_ASC_NODE":153.7196,"ARG_OF_PERICENTER":3.3231,"MEAN_ANOMALY":356.7981,"EPHEMERIS_TYPE":0,"CLASSIFICATION_TYPE":"U","NORAD_CAT_ID":19650,"ELEMENT_SET_NO":999,"REV_AT_EPOCH":92674,"BSTAR":0.00017680593,"MEAN_MOTION_DOT":3.02e-6,"MEAN_MOTION_DDOT":0},{"OBJECT_NAME":"INTERCOSMOS 24","OBJECT_ID":"1989-080A","EPOCH":"2026-03-08T12:45:36.617184","MEAN_MOTION":12.59556211,"ECCENTRICITY":0.11867125,"INCLINATION":82.6028,"RA_OF_ASC_NODE":105.1585,"ARG_OF_PERICENTER":295.5108,"MEAN_ANOMALY":52.7949,"EPHEMERIS_TYPE":0,"CLASSIFICATION_TYPE":"U","NORAD_CAT_ID":20261,"ELEMENT_SET_NO":999,"REV_AT_EPOCH":66665,"BSTAR":0.00028986063,"MEAN_MOTION_DOT":9.73e-6,"MEAN_MOTION_DDOT":0},{"OBJECT_NAME":"SL-14 R/B","OBJECT_ID":"1989-080C","EPOCH":"2026-03-08T18:08:06.401760","MEAN_MOTION":12.50492498,"ECCENTRICITY":0.12305408,"INCLINATION":82.5974,"RA_OF_ASC_NODE":173.7856,"ARG_OF_PERICENTER":186.8838,"MEAN_ANOMALY":171.3891,"EPHEMERIS_TYPE":0,"CLASSIFICATION_TYPE":"U","NORAD_CAT_ID":20262,"ELEMENT_SET_NO":999,"REV_AT_EPOCH":66003,"BSTAR":0.00024191262,"MEAN_MOTION_DOT":8.17e-6,"MEAN_MOTION_DDOT":0},{"OBJECT_NAME":"DELTA 1 R/B","OBJECT_ID":"1989-089B","EPOCH":"2026-03-08T14:04:07.280832","MEAN_MOTION":14.50662106,"ECCENTRICITY":0.00704094,"INCLINATION":97.0706,"RA_OF_ASC_NODE":275.2004,"ARG_OF_PERICENTER":125.4161,"MEAN_ANOMALY":235.364,"EPHEMERIS_TYPE":0,"CLASSIFICATION_TYPE":"U","NORAD_CAT_ID":20323,"ELEMENT_SET_NO":999,"REV_AT_EPOCH":89557,"BSTAR":0.00012208619,"MEAN_MOTION_DOT":4.6e-6,"MEAN_MOTION_DDOT":0},{"OBJECT_NAME":"ARIANE 40 R/B","OBJECT_ID":"1990-005H","EPOCH":"2026-03-08T18:30:28.582560","MEAN_MOTION":14.39869962,"ECCENTRICITY":0.0009792,"INCLINATION":98.3085,"RA_OF_ASC_NODE":128.46,"ARG_OF_PERICENTER":201.3065,"MEAN_ANOMALY":158.7717,"EPHEMERIS_TYPE":0,"CLASSIFICATION_TYPE":"U","NORAD_CAT_ID":20443,"ELEMENT_SET_NO":999,"REV_AT_EPOCH":89267,"BSTAR":0.00013242944,"MEAN_MOTION_DOT":3.74e-6,"MEAN_MOTION_DDOT":0},{"OBJECT_NAME":"DELTA 2 R/B(1)","OBJECT_ID":"1990-008B","EPOCH":"2026-03-08T09:53:27.707136","MEAN_MOTION":15.55817429,"ECCENTRICITY":0.00856772,"INCLINATION":35.6042,"RA_OF_ASC_NODE":183.2376,"ARG_OF_PERICENTER":246.9553,"MEAN_ANOMALY":112.213,"EPHEMERIS_TYPE":0,"CLASSIFICATION_TYPE":"U","NORAD_CAT_ID":20453,"ELEMENT_SET_NO":999,"REV_AT_EPOCH":92593,"BSTAR":0.001075869,"MEAN_MOTION_DOT":0.00091801,"MEAN_MOTION_DDOT":0},{"OBJECT_NAME":"COSMOS 2058","OBJECT_ID":"1990-010A","EPOCH":"2026-03-08T22:04:34.409280","MEAN_MOTION":15.11314076,"ECCENTRICITY":0.00094379,"INCLINATION":82.467,"RA_OF_ASC_NODE":48.1864,"ARG_OF_PERICENTER":346.6633,"MEAN_ANOMALY":13.4346,"EPHEMERIS_TYPE":0,"CLASSIFICATION_TYPE":"U","NORAD_CAT_ID":20465,"ELEMENT_SET_NO":999,"REV_AT_EPOCH":94212,"BSTAR":0.00034047876,"MEAN_MOTION_DOT":5.768e-5,"MEAN_MOTION_DDOT":0},{"OBJECT_NAME":"SL-14 R/B","OBJECT_ID":"1990-010B","EPOCH":"2026-03-08T22:40:46.737696","MEAN_MOTION":14.83568122,"ECCENTRICITY":0.00185862,"INCLINATION":82.4988,"RA_OF_ASC_NODE":268.0886,"ARG_OF_PERICENTER":304.9683,"MEAN_ANOMALY":54.9786,"EPHEMERIS_TYPE":0,"CLASSIFICATION_TYPE":"U","NORAD_CAT_ID":20466,"ELEMENT_SET_NO":999,"REV_AT_EPOCH":92837,"BSTAR":6.0858512e-5,"MEAN_MOTION_DOT":5.26e-6,"MEAN_MOTION_DDOT":0},{"OBJECT_NAME":"SL-14 R/B","OBJECT_ID":"1990-018B","EPOCH":"2026-03-08T21:28:13.751040","MEAN_MOTION":14.82143989,"ECCENTRICITY":0.00176556,"INCLINATION":82.5201,"RA_OF_ASC_NODE":223.8327,"ARG_OF_PERICENTER":94.4652,"MEAN_ANOMALY":265.858,"EPHEMERIS_TYPE":0,"CLASSIFICATION_TYPE":"U","NORAD_CAT_ID":20511,"ELEMENT_SET_NO":999,"REV_AT_EPOCH":92246,"BSTAR":8.4978284e-5,"MEAN_MOTION_DOT":7.02e-6,"MEAN_MOTION_DDOT":0},{"OBJECT_NAME":"HST","OBJECT_ID":"1990-037B","EPOCH":"2026-03-08T01:12:43.887744","MEAN_MOTION":15.29454135,"ECCENTRICITY":0.00017979,"INCLINATION":28.4714,"RA_OF_ASC_NODE":51.18,"ARG_OF_PERICENTER":110.1029,"MEAN_ANOMALY":249.976,"EPHEMERIS_TYPE":0,"CLASSIFICATION_TYPE":"U","NORAD_CAT_ID":20580,"ELEMENT_SET_NO":999,"REV_AT_EPOCH":77306,"BSTAR":0.00036739108,"MEAN_MOTION_DOT":0.00011037,"MEAN_MOTION_DDOT":0},{"OBJECT_NAME":"SL-16 R/B","OBJECT_ID":"1990-046B","EPOCH":"2026-03-08T22:04:11.686080","MEAN_MOTION":14.15012682,"ECCENTRICITY":0.00162354,"INCLINATION":70.9989,"RA_OF_ASC_NODE":299.5324,"ARG_OF_PERICENTER":300.6945,"MEAN_ANOMALY":59.2577,"EPHEMERIS_TYPE":0,"CLASSIFICATION_TYPE":"U","NORAD_CAT_ID":20625,"ELEMENT_SET_NO":999,"REV_AT_EPOCH":84828,"BSTAR":-0.00010050682,"MEAN_MOTION_DOT":-2.43e-6,"MEAN_MOTION_DDOT":0},{"OBJECT_NAME":"COSMOS 2084","OBJECT_ID":"1990-055A","EPOCH":"2026-03-08T22:11:58.958016","MEAN_MOTION":15.05646918,"ECCENTRICITY":0.00171582,"INCLINATION":62.7921,"RA_OF_ASC_NODE":338.1864,"ARG_OF_PERICENTER":189.821,"MEAN_ANOMALY":170.2558,"EPHEMERIS_TYPE":0,"CLASSIFICATION_TYPE":"U","NORAD_CAT_ID":20663,"ELEMENT_SET_NO":999,"REV_AT_EPOCH":93620,"BSTAR":0.00026319088,"MEAN_MOTION_DOT":3.629e-5,"MEAN_MOTION_DDOT":0},{"OBJECT_NAME":"SL-6 R/B(2)","OBJECT_ID":"1990-055D","EPOCH":"2026-03-08T23:21:14.661504","MEAN_MOTION":15.03590689,"ECCENTRICITY":0.00246323,"INCLINATION":62.7824,"RA_OF_ASC_NODE":256.2874,"ARG_OF_PERICENTER":346.9013,"MEAN_ANOMALY":13.1443,"EPHEMERIS_TYPE":0,"CLASSIFICATION_TYPE":"U","NORAD_CAT_ID":20666,"ELEMENT_SET_NO":999,"REV_AT_EPOCH":93808,"BSTAR":0.00021956974,"MEAN_MOTION_DOT":2.834e-5,"MEAN_MOTION_DDOT":0},{"OBJECT_NAME":"SL-8 R/B","OBJECT_ID":"1990-078B","EPOCH":"2026-03-08T23:18:02.253024","MEAN_MOTION":14.89033023,"ECCENTRICITY":0.03624871,"INCLINATION":82.9002,"RA_OF_ASC_NODE":251.9572,"ARG_OF_PERICENTER":16.423,"MEAN_ANOMALY":344.837,"EPHEMERIS_TYPE":0,"CLASSIFICATION_TYPE":"U","NORAD_CAT_ID":20775,"ELEMENT_SET_NO":999,"REV_AT_EPOCH":80919,"BSTAR":0.00059250754,"MEAN_MOTION_DOT":0.00020132,"MEAN_MOTION_DDOT":0}]
